"Mars" "Sol"
{
	Class	"planet"
	Texture	"mars.*"
	NormalMap	"mars-normal.*"
	Color	[ 1.0 0.79855 0.56429 ]
	Radius	3396.2
	Oblateness	0.00589
	Mass<kg>	6.416908e23
	Atmosphere
	{
		Height	80
		Mie	0.003
		MieScaleHeight	11.1
		Rayleigh	[ 0.00022 0.00034 0.00070 ]
		Absorption	[ 0.0020 0.0020 0.0030 ]
		CloudHeight	30
		CloudMap	"mars-clouds.*"
	}
	CustomOrbit	"vsop87-mars"

	# Overridden by CustomOrbit
	# EllipticalOrbit
	# {
	#	Epoch	2451545.0  # 2000 Jan 01 12:00
	#	Period	1.88082484103404
	#	SemiMajorAxis	1.523678992954245
	#	Eccentricity	0.09331510145396012
	#	Inclination	1.849876432291737
	#	AscendingNode	49.56200626315643
	#	ArgOfPericenter	286.5373825261921
	#	MeanAnomaly	19.35648274604994
	# }

	BodyFrame	{ EquatorJ2000 {} }
	CustomRotation	"iau-mars"

	# Overridden by CustomRotation
	# UniformRotation
	# {
	#	Period	24.622962156
	#	Inclination	37.11350
	#	AscendingNode	47.68143
	#	MeridianAngle	176.630
	# }

	LunarLambert	0.5
	GeomAlbedo	0.174821
	BondAlbedo	0.241
	InternalHeatFlux	0.0225
	InfoURL	"https://en.wikipedia.org/wiki/Mars"
}

# Masses and densities of Phobos and Deimos from Ernst et al. (2023), Earth Planets Space 75, 103
#   "High-resolution shape models of Phobos and Deimos from stereophotoclinometry"
#   https://ui.adsabs.harvard.edu/abs/2023EP%26S...75..103E/abstract
# Albedos of Phobos from Fornasier et al. (2024), A&A 686, A203
#   "Phobos photometric properties from Mars Express HRSC observations"
#   https://ui.adsabs.harvard.edu/abs/2024A%26A...686A.203F/abstract
"Phobos:Mars I" "Sol/Mars"
{
	Class	"moon"
	Mesh	"phobos.cmod"
	MeshCenter	[ -0.3790 -0.2983 0.2450 ]
	Texture	"phobos.*"
	Color	[ 1.0 0.987 0.942 ]
	BlendTexture	true
	Radius	13.048  # maximum semi-axis; from model extent
	Mass<kg>	1.060e16
	Density	1861
	EllipticalOrbit
	{
		Epoch	2460000  # 2023 Feb 24 12:00
		Period	0.31891023  # mean
		SemiMajorAxis	9378.938
		Eccentricity	0.01468
		Inclination	2.097806
		AscendingNode	38.701507
		ArgOfPericenter	66.811489
		MeanAnomaly	173.124729
	}
	BodyFrame	{ EquatorJ2000 {} }
	CustomRotation	"iau-phobos"

	# Overridden by CustomRotation
	# UniformRotation
	# {
	#	Inclination	37.10
	#	AscendingNode	47.68
	#	MeridianAngle	35.06
	# }

	LunarLambert	1  # Lommel-Seeliger
	# GeomAlbedo	0.0683  # disk-resolved, green filter (538 nm)
	Reflectivity	0.0157  # green-filter Bond albedo
	InfoURL	"https://en.wikipedia.org/wiki/Phobos_(moon)"
}

# Albedos from Thomas et al. (1996), Icarus 123, p. 536-556
#   "The Surface of Deimos: Contribution of Materials and Processes to Its Unique Appearance"
#   https://ui.adsabs.harvard.edu/abs/1996Icar..123..536T/abstract
"Deimos:Mars II" "Sol/Mars"
{
	Class	"moon"
	Mesh	"deimos.cmod"
	MeshCenter	[ -0.7078 -0.2013 0.9583 ]
	Texture	"deimos.*"
	Color	[ 1.0 0.975 0.932 ]
	BlendTexture	true
	Radius	7.9851  # maximum semi-axis; from model extent
	Mass<kg>	1.51e15
	Density	1465
	EllipticalOrbit
	{
		Epoch	2460000  # 2023 Feb 24 12:00
		Period	1.2624407  # mean
		SemiMajorAxis	23459.739
		Eccentricity	0.000283
		Inclination	2.217941
		AscendingNode	286.210554
		ArgOfPericenter	125.429446
		MeanAnomaly	331.164065
	}
	BodyFrame	{ EquatorJ2000 {} }
	CustomRotation	"iau-deimos"

	# Overridden by CustomRotation
	# UniformRotation
	# {
	#	Inclination	36.48
	#	AscendingNode	47.65
	#	MeridianAngle	79.41
	# }

	LunarLambert	1  # Lommel-Seeliger
	# GeomAlbedo	0.068
	Reflectivity	0.027  # from geometric albedo and phase integral
	InfoURL	"https://en.wikipedia.org/wiki/Deimos_(moon)"
}

# Masses of Jupiter and major moons from Jacobson (2021) (personal comm.)
# Jupiter's standard gravitational parameter available at https://ssd.jpl.nasa.gov/tools/gravity.html#/outerplanets
# Moons' standard gravitational parameters available at https://ssd.jpl.nasa.gov/sats/phys_par/
# Bond albedo and internal heat flux from Li et al. (2018), Nature Communications 9, id. 3709
#   "Less absorbed solar energy and more internal heat for Jupiter"
#   https://www.nature.com/articles/s41467-018-06107-2
#   https://ui.adsabs.harvard.edu/abs/2018NatCo...9.3709L/abstract
"Jupiter" "Sol"
{
	Class	"planet"
	Texture	"jupiter.*"  # from 2000 by Cassini-Huygens
	Color	[ 1.0 0.98663 0.91433 ]
	Radius	71492
	Oblateness	0.06487
	Mass<kg>	1.898124626e27
	Atmosphere
	{
		Height	1000
		Mie	0.0001
		MieScaleHeight	28
		MieAsymmetry	-0.15
		Rayleigh	[ 0.00095 0.00145 0.00298 ]
		Absorption	[ 0.00033 0.00010 0.00001 ]
	}
	CustomOrbit	"vsop87-jupiter"

	# Overridden by CustomOrbit
	# EllipticalOrbit
	# {
	#	Epoch	2451545.0  # 2000 Jan 01 12:00
	#	Period	11.8672211183947
	#	SemiMajorAxis	5.204336236587197
	#	Eccentricity	0.04878759832915376
	#	Inclination	1.304632514444227
	#	AscendingNode	100.4912520138616
	#	ArgOfPericenter	275.0689654447587
	#	MeanAnomaly	18.81562670870565
	# }

	BodyFrame	{ EclipticJ2000 {} }
	UniformRotation
	{
		Period	9.92491250
		Inclination	2.22
		AscendingNode	337.80
		MeridianAngle	305.38
	}
	GeomAlbedo	0.510901
	BondAlbedo	0.503
	InternalHeatFlux	7.485
	Rings
	{
		Inner	122500
		Outer	129360
		Texture	"jupiter-rings.*"
	}
	InfoURL	"https://en.wikipedia.org/wiki/Jupiter"
}

AltSurface "2018 (Hubble)" "Sol/Jupiter"
{
	Texture	"jupiter-2018.*"
}

# Internal heat flux from Davies et al. (2015), Icarus 262, 67-78
#   "Map of Io’s volcanic heat flow"
#   https://ui.adsabs.harvard.edu/abs/2015Icar..262...67D/abstract
"Io:Jupiter I" "Sol/Jupiter"
{
	Class	"moon"
	Texture	"io.*"
	Color	[ 1.0 0.94191 0.70074 ]
	SemiAxes	[ 1829.4 1819.4 1815.7 ]
	Mass<kg>	8.92964876e22
	Atmosphere
	{
		Height	500
		Mie	0.000005
		MieScaleHeight	50
	}
	CustomOrbit	"io"

	# Overridden by CustomOrbit
	# OrbitFrame
	# {
	#	EclipticJ2000	{ Center "Sol/Jupiter" }
	# }
	# EllipticalOrbit
	# {
	#	Epoch	2451545.0  # 2000 Jan 01 12:00
	#	Period	1.769137786
	#	SemiMajorAxis	421769
	#	Eccentricity	0.0041
	#	Inclination	2.212554
	#	AscendingNode	336.850441
	#	ArgOfPericenter	66.167954
	#	MeanAnomaly	335.152150
	# }

	BodyFrame	{ EquatorJ2000 {} }
	CustomRotation	"iau-io"

	# Overridden by CustomRotation
	# UniformRotation
	# {
	#	Inclination	25.50
	#	AscendingNode	358.05
	#	MeridianAngle	200.39
	# }

	LunarLambert	0.5
	GeomAlbedo	0.63
	BondAlbedo	0.56
	InternalHeatFlux	2.529
	InfoURL	"https://en.wikipedia.org/wiki/Io_(moon)"
}

AltSurface "Limit of knowledge" "Sol/Jupiter/Io"
{
	Texture	"io.*"
	OverlayTexture	"io-lok-mask.*"
	LunarLambert	0.5
}

